QIANFAN-33              
1 61566U 24185Q   25215.63490897  .00000170  00000+0  11349-3 0  9993
2 61566  88.9784  93.4453 0008104  29.2012 330.9617 13.96407214 50862
QIANFAN-34              
1 61567U 24185R   25215.56682603  .00000282  00000+0  17524-3 0  9999
2 61567  88.9761  93.1897 0007270  41.2970 318.8758 14.02157506 50974
QIANFAN-35              
1 61568U 24185S   25215.57254313  .00000481  00000+0  18940-3 0  9998
2 61568  88.9785  92.2957 0007405  16.2312 343.9118 14.27658272 51467
QIANFAN-36              
1 61569U 24185T   25215.57384348  .00000077  00000+0  93564-4 0  9998
2 61569  88.9775  94.7267 0008089  66.9029 293.2977 13.55544712 50152
QIANFAN-37              
1 62238U 24232B   25215.52734812  .00000052  00000+0  61826-4 0  9994
2 62238  88.9925  54.6002 0002577  94.8606 265.2839 13.50965017 81455
QIANFAN-38              
1 62239U 24232C   25215.84842982  .00000055  00000+0  66574-4 0  9996
2 62239  88.9931  54.4744 0013495 206.9304 153.1148 13.50953533 81555
QIANFAN-39              
1 62240U 24232D   25215.55970549  .00000153  00000+0  58795-4 0  9992
2 62240  88.9929  52.3336 0017449 141.7702 218.4732 14.25229486 82707
QIANFAN-40              
1 62241U 24232E   25215.58501682  .00000041  00000+0  44980-4 0  9991
2 62241  88.9959  54.0488 0012287 215.8805 144.1522 13.50959588 81880
